NORAD_CAT_ID,OBJECT_NAME,OBJECT_TYPE,EPOCH,MEAN_MOTION,ECCENTRICITY,INCLINATION,RA_OF_ASC_NODE,ARG_OF_PERICENTER,MEAN_ANOMALY,BSTAR,MEAN_MOTION_DOT,MEAN_MOTION_DDOT,TLE_LINE0,TLE_LINE1,TLE_LINE2,SEMIMAJOR_AXIS,PERIOD,APOGEE,PERIGEE,DECAYED
53261.0,STARLINK-4062,PAYLOAD,2024-03-28 04:25:44,15.08856278,0.0001941,53.2144,148.1927,49.9839,310.1323,0.00016218,2.295e-05,0.0,0 STARLINK-4062,1 53261U 22086V   24088.18454387  .00002295  00000-0  16218-3 0  9996,2 53261  53.2144 148.1927 0001941  49.9839 310.1323 15.08856278 93473,6917.831,95.437,541.038,538.353,0.0
53261.0,STARLINK-4062,PAYLOAD,2024-03-28 10:47:16,15.0885491,0.0001927,53.2146,146.9996,53.1338,306.983,0.00031007,4.652e-05,0.0,0 STARLINK-4062,1 53261U 22086V   24088.44950173  .00004652  00000-0  31007-3 0  9991,2 53261  53.2146 146.9996 0001927  53.1338 306.9830 15.08854910 93693,6917.835,95.437,541.033,538.367,0.0
53261.0,STARLINK-4062,PAYLOAD,2024-03-28 20:19:36,15.08845345,0.0002003,53.2162,145.217,59.1661,300.9528,0.00015746,2.219e-05,0.0,0 STARLINK-4062,1 53261U 22086V   24088.84694773  .00002219  00000-0  15746-3 0  9995,2 53261  53.2162 145.2170 0002003  59.1661 300.9528 15.08845345 93575,6917.864,95.437,541.115,538.343,0.0
53261.0,STARLINK-4062,PAYLOAD,2024-03-29 09:02:40,15.08845577,0.0002074,53.2175,142.8418,77.2735,282.8489,-0.00022187,-3.818e-05,0.0,0 STARLINK-4062,1 53261U 22086V   24089.37686162 -.00003818  00000-0 -22187-3 0  9992,2 53261  53.2175 142.8418 0002074  77.2735 282.8489 15.08845577 93838,6917.863,95.437,541.163,538.294,0.0
53261.0,STARLINK-4062,PAYLOAD,2024-03-29 20:10:22,15.08844077,0.0001935,53.2162,140.7584,72.0748,288.0455,9.0708e-06,-1.44e-06,0.0,0 STARLINK-4062,1 53261U 22086V   24089.84054307 -.00000144  00000-0  90708-5 0  9998,2 53261  53.2162 140.7584 0001935  72.0748 288.0455 15.08844077 93900,6917.868,95.437,541.072,538.394,0.0
53261.0,STARLINK-4062,PAYLOAD,2024-03-30 02:31:55,15.08846286,0.0001935,53.2162,139.5684,74.9657,285.155,6.2288e-05,7.03e-06,0.0,0 STARLINK-4062,1 53261U 22086V   24090.10550171  .00000703  00000-0  62288-4 0  9990,2 53261  53.2162 139.5684 0001935  74.9657 285.1550 15.08846286 93769,6917.861,95.437,541.065,538.388,0.0
53261.0,STARLINK-4062,PAYLOAD,2024-03-30 10:28:50,15.08852631,0.0001889,53.2158,138.0826,77.8325,282.2879,0.00018114,2.597e-05,0.0,0 STARLINK-4062,1 53261U 22086V   24090.43669786  .00002597  00000-0  18114-3 0  9990,2 53261  53.2158 138.0826 0001889  77.8325 282.2879 15.08852631 93996,6917.842,95.437,541.014,538.4,0.0
53261.0,STARLINK-4062,PAYLOAD,2024-03-30 20:01:09,15.08844542,0.0001819,53.215,136.2987,79.0824,281.0373,0.00015444,2.171e-05,0.0,0 STARLINK-4062,1 53261U 22086V   24090.83414139  .00002171  00000-0  15444-3 0  9995,2 53261  53.2150 136.2987 0001819  79.0824 281.0373 15.08844542 94053,6917.867,95.437,540.99,538.473,0.0
53261.0,STARLINK-4062,PAYLOAD,2024-03-31 02:22:42,15.08843014,0.0001843,53.2148,135.1094,80.9038,279.2162,0.00020592,2.991e-05,0.0,0 STARLINK-4062,1 53261U 22086V   24091.09910281  .00002991  00000-0  20592-3 0  9993,2 53261  53.2148 135.1094 0001843  80.9038 279.2162 15.08843014 93914,6917.871,95.437,541.011,538.461,0.0
53261.0,STARLINK-4062,PAYLOAD,2024-03-31 10:19:38,15.08840829,0.0001807,53.2152,133.6221,79.4363,280.6832,0.00012182,1.651e-05,0.0,0 STARLINK-4062,1 53261U 22086V   24091.43030447  .00001651  00000-0  12182-3 0  9996,2 53261  53.2152 133.6221 0001807  79.4363 280.6832 15.08840829 94145,6917.878,95.438,540.993,538.493,0.0
53261.0,STARLINK-4062,PAYLOAD,2024-03-31 19:51:56,15.08851124,0.0001614,53.2157,131.8354,83.9249,276.1927,0.00019875,2.877e-05,0.0,0 STARLINK-4062,1 53261U 22086V   24091.82773584  .00002877  00000-0  19875-3 0  9992,2 53261  53.2157 131.8354 0001614  83.9249 276.1927 15.08851124 94208,6917.846,95.437,540.828,538.595,0.0
53261.0,STARLINK-4062,PAYLOAD,2024-04-01 11:45:47,15.08861735,0.0001794,53.2155,128.8636,80.0398,280.0796,0.00036634,5.55e-05,0.0,0 STARLINK-4062,1 53261U 22086V   24092.49012874  .00005550  00000-0  36634-3 0  9997,2 53261  53.2155 128.8636 0001794  80.0398 280.0796 15.08861735 94125,6917.814,95.436,540.92,538.438,0.0
53261.0,STARLINK-4062,PAYLOAD,2024-04-01 19:42:43,15.08846074,0.0001805,53.2155,127.377,80.5674,279.5522,7.5627e-05,9.16e-06,0.0,0 STARLINK-4062,1 53261U 22086V   24092.82133353  .00000916  00000-0  75627-4 0  9997,2 53261  53.2155 127.3770 0001805  80.5674 279.5522 15.08846074 94177,6917.862,95.437,540.975,538.478,0.0
53261.0,STARLINK-4062,PAYLOAD,2024-04-02 11:36:34,15.08836191,0.0001793,53.2152,124.4005,94.4794,265.6403,-0.00012257,-2.238e-05,0.0,0 STARLINK-4062,1 53261U 22086V   24093.48373636 -.00002238  00000-0 -12257-3 0  9990,2 53261  53.2152 124.4005 0001793  94.4794 265.6403 15.08836191 94270,6917.892,95.438,540.997,538.517,0.0
53261.0,STARLINK-4062,PAYLOAD,2024-04-02 19:33:30,15.08828323,0.0001778,53.2145,122.9138,93.5642,266.5553,-0.00018168,-3.177e-05,0.0,0 STARLINK-4062,1 53261U 22086V   24093.81494110 -.00003177  00000-0 -18168-3 0  9998,2 53261  53.2145 122.9138 0001778  93.5642 266.5553 15.08828323 94507,6917.916,95.438,541.011,538.551,0.0
53261.0,STARLINK-4062,PAYLOAD,2024-04-03 08:16:36,15.08832803,0.0001694,53.2145,120.535,90.7495,269.3691,-8.2416e-05,-1.599e-05,0.0,0 STARLINK-4062,1 53261U 22086V   24094.34486464 -.00001599  00000-0 -82416-4 0  9994,2 53261  53.2145 120.5350 0001694  90.7495 269.3691 15.08832803 94589,6917.902,95.438,540.939,538.595,0.0
53261.0,STARLINK-4062,PAYLOAD,2024-04-04 04:56:37,15.08835453,0.000158,53.2158,116.6689,94.0925,266.0247,0.00019399,2.8e-05,0.0,0 STARLINK-4062,1 53261U 22086V   24095.20598471  .00002800  00000-0  19399-3 0  9995,2 53261  53.2158 116.6689 0001580  94.0925 266.0247 15.08835453 94533,6917.894,95.438,540.852,538.666,0.0
53261.0,STARLINK-4062,PAYLOAD,2024-04-04 08:07:23,15.08838368,0.0001568,53.2154,116.0761,89.5927,270.5245,0.0002644,3.922e-05,0.0,0 STARLINK-4062,1 53261U 22086V   24095.33846730  .00003922  00000-0  26440-3 0  9994,2 53261  53.2154 116.0761 0001568  89.5927 270.5245 15.08838368 94739,6917.885,95.438,540.835,538.666,0.0
53261.0,STARLINK-4062,PAYLOAD,2024-04-05 07:58:10,15.0884527,0.0001591,53.2156,111.615,89.1185,270.9989,0.00023561,3.464e-05,0.0,0 STARLINK-4062,1 53261U 22086V   24096.33206523  .00003464  00000-0  23561-3 0  9997,2 53261  53.2156 111.6150 0001591  89.1185 270.9989 15.08845270 94708,6917.864,95.437,540.83,538.629,0.0
53261.0,STARLINK-4062,PAYLOAD,2024-04-05 17:30:29,15.08840005,0.0001577,53.2151,109.8312,88.9882,271.129,7.8742e-05,9.65e-06,0.0,0 STARLINK-4062,1 53261U 22086V   24096.72950704  .00000965  00000-0  78742-4 0  9992,2 53261  53.2151 109.8312 0001577  88.9882 271.1290 15.08840005 94942,6917.88,95.438,540.836,538.654,0.0
53261.0,STARLINK-4062,PAYLOAD,2024-04-06 01:27:25,15.08836642,0.0001653,53.2155,108.3447,90.5719,269.5463,-4.0271e-05,-9.29e-06,0.0,0 STARLINK-4062,1 53261U 22086V   24097.06070868 -.00000929  00000-0 -40271-4 0  9992,2 53261  53.2155 108.3447 0001653  90.5719 269.5463 15.08836642 94813,6917.891,95.438,540.899,538.612,0.0
53261.0,STARLINK-4062,PAYLOAD,2024-04-06 10:59:47,15.08800909,0.0001345,53.2161,106.5598,85.7088,274.4058,-0.00027408,-4.642e-05,0.0,0 STARLINK-4062,1 53261U 22086V   24097.45818800 -.00004642  00000-0 -27408-3 0  9993,2 53261  53.2161 106.5598 0001345  85.7088 274.4058 15.08800909 94878,6918.0,95.44,540.795,538.934,0.0
53261.0,STARLINK-4062,PAYLOAD,2024-04-06 17:21:18,15.08825474,9.27e-05,53.2165,105.3711,89.9205,270.1893,-5.2857e-05,-1.128e-05,0.0,0 STARLINK-4062,1 53261U 22086V   24097.72312816 -.00001128  00000-0 -52857-4 0  9992,2 53261  53.2165 105.3711 0000927  89.9205 270.1893 15.08825474 94917,6917.925,95.438,540.431,539.148,0.0
53261.0,STARLINK-4062,PAYLOAD,2024-04-07 09:15:08,15.08843506,0.0001499,53.2166,102.3965,81.0982,279.018,0.00010272,1.347e-05,0.0,0 STARLINK-4062,1 53261U 22086V   24098.38551715  .00001347  00000-0  10272-3 0  9993,2 53261  53.2166 102.3965 0001499  81.0982 279.0180 15.08843506 95190,6917.87,95.437,540.772,538.698,0.0
53261.0,STARLINK-4062,PAYLOAD,2024-04-08 09:05:55,15.0884086,0.0001323,53.2168,97.9353,69.8505,290.2629,0.00052507,8.079e-05,0.0,0 STARLINK-4062,1 53261U 22086V   24099.37911009  .00008079  00000-0  52507-3 0  9995,2 53261  53.2168  97.9353 0001323  69.8505 290.2629 15.08840860 95343,6917.878,95.438,540.658,538.828,0.0
53261.0,STARLINK-4062,PAYLOAD,2024-04-08 17:02:51,15.08835744,0.0001281,53.217,96.4488,76.103,284.0104,0.0004255,6.49e-05,0.0,0 STARLINK-4062,1 53261U 22086V   24099.71031741  .00006490  00000-0  42550-3 0  9991,2 53261  53.2170  96.4488 0001281  76.1030 284.0104 15.08835744 95216,6917.893,95.438,540.645,538.872,0.0
53261.0,STARLINK-4062,PAYLOAD,2024-04-09 08:56:42,15.08849176,0.0001386,53.2172,93.4733,76.404,283.7106,1.7936e-05,-2e-08,0.0,0 STARLINK-4062,1 53261U 22086V   24100.37271342 -.00000002  00000-0  17936-4 0  9994,2 53261  53.2172  93.4733 0001386  76.4040 283.7106 15.08849176 95490,6917.852,95.437,540.676,538.759,0.0
53261.0,STARLINK-4062,PAYLOAD,2024-04-09 16:53:37,15.08849533,0.0001426,53.217,91.9881,73.8678,286.2472,-3.6538e-06,-3.46e-06,0.0,0 STARLINK-4062,1 53261U 22086V   24100.70391188 -.00000346  00000-0 -36538-5 0  9994,2 53261  53.2170  91.9881 0001426  73.8678 286.2472 15.08849533 95545,6917.851,95.437,540.703,538.73,0.0
53261.0,STARLINK-4062,PAYLOAD,2024-04-10 05:36:42,15.08854481,0.0001316,53.2163,89.6092,79.6473,280.4667,-5.6218e-05,-1.183e-05,0.0,0 STARLINK-4062,1 53261U 22086V   24101.23382585 -.00001183  00000-0 -56218-4 0  9990,2 53261  53.2163  89.6092 0001316  79.6473 280.4667 15.08854481 95449,6917.836,95.437,540.612,538.791,0.0
53261.0,STARLINK-4062,PAYLOAD,2024-04-10 16:44:24,15.08849859,0.0001391,53.2172,87.528,75.4974,284.6172,-7.1885e-05,-1.432e-05,0.0,0 STARLINK-4062,1 53261U 22086V   24101.69750623 -.00001432  00000-0 -71885-4 0  9996,2 53261  53.2172  87.5280 0001391  75.4974 284.6172 15.08849859 95695,6917.85,95.437,540.678,538.753,0.0
